NORAD_CAT_ID,OBJECT_NAME,OBJECT_TYPE,EPOCH,MEAN_MOTION,ECCENTRICITY,INCLINATION,RA_OF_ASC_NODE,ARG_OF_PERICENTER,MEAN_ANOMALY,BSTAR,MEAN_MOTION_DOT,MEAN_MOTION_DDOT,TLE_LINE0,TLE_LINE1,TLE_LINE2,SEMIMAJOR_AXIS,PERIOD,APOGEE,PERIGEE,DECAYED
55309.0,STARLINK-5315,PAYLOAD,2023-01-24 16:00:00,15.94717151,0.0038290999999999,69.9996,55.1975,163.4285,357.5741,-0.0021633,-0.00891912,0.00025149,0 STARLINK-5315,1 55309U 23010AS  23024.66667824 -.00891912  25149-3 -21633-2 0  9997,2 55309  69.9996  55.1975 0038291 163.4285 357.5741 15.94717151  1303,6667.24,90.298,314.634,263.575,0.0
55309.0,STARLINK-5315,PAYLOAD,2023-01-25 14:00:01,15.93086087,0.0029211,69.9992,52.5272,165.6495,213.5973,-0.002514,-0.0092022,0.000262,0 STARLINK-5315,1 55309U 23010AS  23025.58334491 -.00920220  26200-3 -25140-2 0  9991,2 55309  69.9992  52.5272 0029211 165.6495 213.5973 15.93086087  1448,6671.79,90.391,313.144,274.166,0.0
55309.0,STARLINK-5315,PAYLOAD,2023-01-25 22:00:00,15.92472707,0.0026594,69.9998,51.558,166.2192,323.7787,-0.0025204999999999,-0.00887059,0.00024327,0 STARLINK-5315,1 55309U 23010AS  23025.91667824 -.00887059  24327-3 -25205-2 0  9999,2 55309  69.9998  51.5580 0026594 166.2192 323.7787 15.92472707  1496,6673.503000000001,90.425,313.115,277.62,0.0
55309.0,STARLINK-5315,PAYLOAD,2023-01-26 06:00:00,15.91884116,0.0023767,69.9999,50.5884,167.6847,72.34,-0.0026838,-0.00909498,0.00025327,0 STARLINK-5315,1 55309U 23010AS  23026.25001157 -.00909498  25327-3 -26838-2 0  9994,2 55309  69.9999  50.5884 0023767 167.6847  72.3400 15.91884116  1550,6675.148,90.459,312.877,281.148,0.0
55309.0,STARLINK-5315,PAYLOAD,2023-01-26 14:00:01,15.9129003,0.0020533,69.9994,49.6215,171.1284,178.2066,-0.0028136,-0.00918291,0.00025629,0 STARLINK-5315,1 55309U 23010AS  23026.58334491 -.00918291  25629-3 -28136-2 0  9999,2 55309  69.9994  49.6215 0020533 171.1284 178.2066 15.91290030  1308,6676.809,90.493,312.383,284.964,0.0
55309.0,STARLINK-5315,PAYLOAD,2023-01-26 22:00:00,15.90681949,0.0017624,70.0002,48.655,174.2315,283.7006,-0.0028415,-0.00894424,0.00024261,0 STARLINK-5315,1 55309U 23010AS  23026.91667824 -.00894424  24261-3 -28415-2 0  9997,2 55309  70.0002  48.6550 0017624 174.2315 283.7006 15.90681949  1654,6678.51,90.527,312.146,288.605,0.0
55309.0,STARLINK-5315,PAYLOAD,2023-01-27 06:00:00,15.90086,0.0015670999999999,69.9997,47.6885,177.6101,28.1995,-0.0029555999999999,-0.00899812,0.00024388,0 STARLINK-5315,1 55309U 23010AS  23027.25001157 -.00899812  24388-3 -29556-2 0  9999,2 55309  69.9997  47.6885 0015671 177.6101  28.1995 15.90086000  1716,6680.179,90.561,312.512,291.575,0.0
55309.0,STARLINK-5315,PAYLOAD,2023-01-27 14:00:01,15.89500541,0.0013043,69.9994,46.7236,185.4079,127.5578,-0.0031448,-0.0092617999999999,0.00025581,0 STARLINK-5315,1 55309U 23010AS  23027.58334491 -.00926180  25581-3 -31448-2 0  9993,2 55309  69.9994  46.7236 0013043 185.4079 127.5578 15.89500541  1760,6681.819,90.594,312.399,294.969,0.0
55309.0,STARLINK-5315,PAYLOAD,2023-01-27 22:00:00,15.88897913,0.0010689,70.0,45.7597,195.1987,224.2113,-0.0032101,-0.00915085,0.0002487,0 STARLINK-5315,1 55309U 23010AS  23027.91667824 -.00915085  24870-3 -32101-2 0  9998,2 55309  70.0000  45.7597 0010689 195.1987 224.2113 15.88897913  1300,6683.509,90.629,312.518,298.23,0.0
55309.0,STARLINK-5315,PAYLOAD,2023-01-28 14:00:01,15.8770651,0.00085,69.9992,43.833,223.575,46.5692,-0.0034466,-0.0084549,0.0,0 STARLINK-5315,1 55309U 23010AS  23028.58334491 -.00845490  00000-0 -34466-2 0  9997,2 55309  69.9992  43.8330 0008500 223.5750  46.5692 15.87706510  1302,6686.852,90.697,314.401,303.033,0.0
55309.0,STARLINK-5315,PAYLOAD,2023-01-28 22:00:00,15.87110332,0.0008403,69.9998,42.8718,244.443,129.9928,-0.0035693,-0.008496,0.0,0 STARLINK-5315,1 55309U 23010AS  23028.91667824 -.00849600  00000-0 -35693-2 0  9993,2 55309  69.9998  42.8718 0008403 244.4430 129.9928 15.87110332  1978,6688.526,90.731,316.012,304.771,0.0
55309.0,STARLINK-5315,PAYLOAD,2023-01-29 22:00:01,15.85300497,0.0007215,70.0,39.9922,269.1857,53.8951,-0.0037588,-0.00820544,0.0,0 STARLINK-5315,1 55309U 23010AS  23029.91668981 -.00820544  00000-0 -37588-2 0  9990,2 55309  70.0000  39.9922 0007215 269.1857  53.8951 15.85300497  1305,6693.616,90.835,320.31,310.651,0.0
55309.0,STARLINK-5315,PAYLOAD,2023-01-30 14:00:01,15.84126447,0.0005736,69.9995,38.0761,267.9589,257.1782,-0.004172,-0.0085616,0.0,0 STARLINK-5315,1 55309U 23010AS  23030.58334491 -.00856160  00000-0 -41720-2 0  9997,2 55309  69.9995  38.0761 0005736 267.9589 257.1782 15.84126447  2245,6696.923,90.902,322.629,314.946,0.0
55309.0,STARLINK-5315,PAYLOAD,2023-01-30 22:00:00,15.83514427,0.0003942,70.0002,37.12,274.7463,350.3854,-0.0041701,-0.00832346,0.0,0 STARLINK-5315,1 55309U 23010AS  23030.91667824 -.00832346  00000-0 -41701-2 0  9992,2 55309  70.0002  37.1200 0003942 274.7463 350.3854 15.83514427  1309,6698.648,90.937,323.154,317.872,0.0
55309.0,STARLINK-5315,PAYLOAD,2023-01-31 14:00:01,15.82319634,0.0003561,69.9995,35.2089,268.7726,194.1866,-0.0044234,-0.00834094,0.0,0 STARLINK-5315,1 55309U 23010AS  23031.58334491 -.00834094  00000-0 -44234-2 0  9993,2 55309  69.9995  35.2089 0003561 268.7726 194.1866 15.82319634  1302,6702.02,91.006,326.271,321.498,0.0
55309.0,STARLINK-5315,PAYLOAD,2023-01-31 22:00:00,15.81724032,0.0003479,69.9999,34.2551,271.4893,289.307,-0.0045686,-0.00837428,0.0,0 STARLINK-5315,1 55309U 23010AS  23031.91667824 -.00837428  00000-0 -45686-2 0  9995,2 55309  69.9999  34.2551 0003479 271.4893 289.3070 15.81724032  2455,6703.702,91.04,327.899,323.235,0.0
55309.0,STARLINK-5315,PAYLOAD,2023-02-01 14:00:01,15.80536466,0.0003666,69.9993,32.3486,266.9691,127.3486,-0.0048931,-0.00847897,0.0,0 STARLINK-5315,1 55309U 23010AS  23032.58334491 -.00847897  00000-0 -48931-2 0  9997,2 55309  69.9993  32.3486 0003666 266.9691 127.3486 15.80536466  1304,6707.06,91.108,331.383,326.466,0.0
55309.0,STARLINK-5315,PAYLOAD,2023-02-01 22:00:00,15.79929967,0.0003494,70.0002,31.3979,271.49,218.5188,-0.004963,-0.00837307,0.0,0 STARLINK-5315,1 55309U 23010AS  23032.91667824 -.00837307  00000-0 -49630-2 0  9995,2 55309  70.0002  31.3979 0003494 271.4900 218.5188 15.79929967  2603,6708.776,91.143,332.985,328.297,0.0
55309.0,STARLINK-5315,PAYLOAD,2023-02-02 14:00:01,15.78753398,0.0003641,69.9992,29.4961,263.8207,55.4019,-0.0054114,-0.00862789,0.0,0 STARLINK-5315,1 55309U 23010AS  23033.58334491 -.00862789  00000-0 -54114-2 0  9995,2 55309  69.9992  29.4961 0003641 263.8207  55.4019 15.78753398  1305,6712.109,91.211,336.417,331.53,0.0
55309.0,STARLINK-5315,PAYLOAD,2023-02-02 22:00:00,15.78133977,0.0003607,70.0,28.5482,269.0363,143.7316,-0.0053578,-0.0083351,0.0,0 STARLINK-5315,1 55309U 23010AS  23033.91667824 -.00833510  00000-0 -53578-2 0  9994,2 55309  70.0000  28.5482 0003607 269.0363 143.7316 15.78133977  2766,6713.865,91.247,338.152,333.308,0.0
55309.0,STARLINK-5315,PAYLOAD,2023-02-03 14:00:01,15.76966066,0.000357,69.9988,26.651,261.7374,335.9381,-0.0059319,-0.00871827,0.0,0 STARLINK-5315,1 55309U 23010AS  23034.58334491 -.00871827  00000-0 -59319-2 0  9991,2 55309  69.9988  26.6510 0003570 261.7374 335.9381 15.76966066  1306,6717.179,91.315,341.442,336.646,0.0
55309.0,STARLINK-5315,PAYLOAD,2023-02-03 22:00:00,15.76339662,0.0003614,69.9999,25.7059,265.0093,64.0632,-0.005792,-0.00831857,0.0,0 STARLINK-5315,1 55309U 23010AS  23034.91667824 -.00831857  00000-0 -57920-2 0  9992,2 55309  69.9999  25.7059 0003614 265.0093  64.0632 15.76339662  2924,6718.959,91.351,343.252,338.395,0.0
55309.0,STARLINK-5315,PAYLOAD,2023-02-04 14:00:01,15.75148358,0.000344,69.9993,23.8146,262.2249,247.4633,-0.0061536,-0.00837959,0.0,0 STARLINK-5315,1 55309U 23010AS  23035.58334491 -.00837959  00000-0 -61536-2 0  9994,2 55309  69.9993  23.8146 0003440 262.2249 247.4633 15.75148358  1301,6722.346,91.42,346.524,341.899,0.0
55309.0,STARLINK-5315,PAYLOAD,2023-02-04 22:00:00,15.74547028,0.0003508,70.0002,22.8713,262.4979,336.4246,-0.0062761,-0.0083302,0.0,0 STARLINK-5315,1 55309U 23010AS  23035.91667824 -.00833020  00000-0 -62761-2 0  9996,2 55309  70.0002  22.8713 0003508 262.4979 336.4246 15.74547028  1306,6724.057,91.455,348.281,343.564,0.0
55309.0,STARLINK-5315,PAYLOAD,2023-02-05 14:00:01,15.73361712,0.000386,69.9959,20.977,266.7773,148.5587,-0.0068128,-0.00856757,0.0,0 STARLINK-5315,1 55309U 23010AS  23036.58335648 -.00856757  00000-0 -68128-2 0  9991,2 55309  69.9959  20.9770 0003860 266.7773 148.5587 15.73361712  1309,6727.434,91.524,351.896,346.702,0.0
55309.0,STARLINK-5315,PAYLOAD,2023-02-05 22:00:00,15.72773308,0.0003332,69.9965,20.0357,262.8679,239.4739,-0.0068908,-0.0084582,0.0,0 STARLINK-5315,1 55309U 23010AS  23036.91667824 -.00845820  00000-0 -68908-2 0  9997,2 55309  69.9965  20.0357 0003332 262.8679 239.4739 15.72773308  3245,6729.112,91.558,353.219,348.735,0.0
55309.0,STARLINK-5315,PAYLOAD,2023-02-06 14:00:01,15.71578649,0.0003648,69.9964,18.1552,268.5772,45.7868,-0.0075388,-0.00876353,0.0,0 STARLINK-5315,1 55309U 23010AS  23037.58334491 -.00876353  00000-0 -75388-2 0  9997,2 55309  69.9964  18.1552 0003648 268.5772  45.7868 15.71578649  1302,6732.522,91.628,356.843,351.931,0.0
55309.0,STARLINK-5315,PAYLOAD,2023-02-06 22:00:00,15.70980634,0.0003587,69.9967,17.2165,266.3801,132.9073,-0.0075239,-0.00854983,0.0,0 STARLINK-5315,1 55309U 23010AS  23037.91667824 -.00854983  00000-0 -75239-2 0  9993,2 55309  69.9967  17.2165 0003587 266.3801 132.9073 15.70980634  3394,6734.23,91.662,358.511,353.68,0.0
55309.0,STARLINK-5315,PAYLOAD,2023-02-07 14:00:01,15.69940015,0.0003323,69.9984,15.3404,271.8551,295.1638,-0.00027599,-0.00033289,0.0,0 STARLINK-5315,1 55309U 23010AS  23038.58334491 -.00033289  00000-0 -27599-3 0  9993,2 55309  69.9984  15.3404 0003323 271.8551 295.1638 15.69940015  3508,6737.206,91.723,361.309,356.832,0.0
